stk.v.4.3 

BEGIN Ephemeris 
 
NumberOfEphemerisPoints		146 
ScenarioEpoch	   23 Jun 2006 20:35:47.504544001 
InterpolationMethod		Lagrange 
InterpolationOrder		5 
CentralBody				Earth 
CoordinateSystem			TEME 
CoordinateSystemEpoch	 23 Jun 2006 20:35:47.504544001 
DistanceUnit			Kilometers 
 
EphemerisTimePosVel 
 
       0.00000000   23876.96955477  -37275.65263893   -8113.95104473  0.589108130 -0.767768418 -0.260379679
 END Ephemeris 
